NORAD_CAT_ID,OBJECT_NAME,OBJECT_TYPE,EPOCH,MEAN_MOTION,ECCENTRICITY,INCLINATION,RA_OF_ASC_NODE,ARG_OF_PERICENTER,MEAN_ANOMALY,BSTAR,MEAN_MOTION_DOT,MEAN_MOTION_DDOT,TLE_LINE0,TLE_LINE1,TLE_LINE2,SEMIMAJOR_AXIS,PERIOD,APOGEE,PERIGEE,DECAYED
52850.0,STARLINK-4187,PAYLOAD,2022-07-14 14:00:01,15.73147984,0.0002701,53.2156,270.9637,16.961,209.8915,0.00047757,0.00066796,0.0,0 STARLINK-4187,1 52850U 22062W   22195.58334491  .00066796  00000-0  47757-3 0  9995,2 52850  53.2156 270.9637 0002701  16.9610 209.8915 15.73147984  1308,6728.043000000002,91.536,351.726,348.091,0.0
52850.0,STARLINK-4187,PAYLOAD,2022-07-14 22:00:00,15.73228656,0.000254,53.2151,269.3127,15.2545,300.492,-0.00030572,-0.00043367,0.0,0 STARLINK-4187,1 52850U 22062W   22195.91667824 -.00043367  00000-0 -30572-3 0  9999,2 52850  53.2151 269.3127 0002540  15.2545 300.4920 15.73228656  1309,6727.813,91.532,351.38699999999994,347.97,0.0
52850.0,STARLINK-4187,PAYLOAD,2022-07-15 14:00:01,15.73184229,0.0002759,53.2147,266.0153,12.5848,121.0358,0.00058003,0.00081531,0.0,0 STARLINK-4187,1 52850U 22062W   22196.58334491  .00081531  00000-0  58003-3 0  9996,2 52850  53.2147 266.0153 0002759  12.5848 121.0358 15.73184229  4914,6727.94,91.534,351.661,347.949,0.0
52850.0,STARLINK-4187,PAYLOAD,2022-07-15 22:00:00,15.734108,0.0002416,53.216,264.3639,14.0652,208.4696,-0.0030724,-0.00415074,0.0,0 STARLINK-4187,1 52850U 22062W   22196.91667824 -.00415074  00000-0 -30724-2 0  9996,2 52850  53.2160 264.3639 0002416  14.0652 208.4696 15.73410800  1301,6727.294,91.521,350.785,347.534,0.0
52850.0,STARLINK-4187,PAYLOAD,2022-07-16 06:00:00,15.73121771,0.0002527,53.2167,262.7148,13.5761,297.9831,-0.0054592,-0.00703727,0.0,0 STARLINK-4187,1 52850U 22062W   22197.25001157 -.00703727  00000-0 -54592-2 0  9999,2 52850  53.2167 262.7148 0002527  13.5761 297.9831 15.73121771  5026,6728.118,91.538,351.68300000000005,348.283,0.0
52850.0,STARLINK-4187,PAYLOAD,2022-07-16 14:00:01,15.726328,0.0002566,53.2177,261.0712,12.8833,27.2176,-0.0090374,-0.01108178,0.0,0 STARLINK-4187,1 52850U 22062W   22197.58334491 -.01108178  00000-0 -90374-2 0  9993,2 52850  53.2177 261.0712 0002566  12.8833  27.2176 15.72632800  5071,6729.513000000001,91.566,353.105,349.651,0.0
52850.0,STARLINK-4187,PAYLOAD,2022-07-16 22:00:00,15.71829569,0.0002659,53.2177,259.4261,14.1419,113.7134,-0.0093433,-0.01107084,0.0,0 STARLINK-4187,1 52850U 22062W   22197.91667824 -.01107084  00000-0 -93433-2 0  9993,2 52850  53.2177 259.4261 0002659  14.1419 113.7134 15.71829569  1305,6731.805,91.613,355.46,351.88,0.0
52850.0,STARLINK-4187,PAYLOAD,2022-07-17 06:00:00,15.71027331,0.0002552,53.2178,257.7849,17.118,197.525,-0.0096716,-0.01107419,0.0,0 STARLINK-4187,1 52850U 22062W   22198.25001157 -.01107419  00000-0 -96716-2 0  9991,2 52850  53.2178 257.7849 0002552  17.1180 197.5250 15.71027331  5174,6734.097,91.66,357.68,354.24300000000005,0.0
52850.0,STARLINK-4187,PAYLOAD,2022-07-17 14:00:01,15.70224768,0.0002701,53.2175,256.1473,11.8938,288.5717,-0.01001,-0.01107967,0.0,0 STARLINK-4187,1 52850U 22062W   22198.58334491 -.01107967  00000-0 -10010-1 0  9997,2 52850  53.2175 256.1473 0002701  11.8938 288.5717 15.70224768  1307,6736.391,91.707,360.076,356.43699999999984,0.0
52850.0,STARLINK-4187,PAYLOAD,2022-07-17 22:00:00,15.69421268,0.0002699,53.2175,254.508,9.722,15.6038,-0.010343,-0.01106993,0.0,0 STARLINK-4187,1 52850U 22062W   22198.91667824 -.01106993  00000-0 -10343-1 0  9990,2 52850  53.2175 254.5080 0002699   9.7220  15.6038 15.69421268  5287,6738.69,91.754,362.374,358.736,0.0
52850.0,STARLINK-4187,PAYLOAD,2022-07-18 14:00:01,15.67814024,6.890000000000001e-05,53.2176,251.2409,347.2528,204.896,-0.011028,-0.01103607,0.0,0 STARLINK-4187,1 52850U 22062W   22199.58334491 -.01103607  00000-0 -11028-1 0  9995,2 52850  53.2176 251.2409 0000689 347.2528 204.8960 15.67814024  1304,6743.295,91.848,365.624,364.695,0.0
52850.0,STARLINK-4187,PAYLOAD,2022-07-18 22:00:00,15.67012744,0.0001118,53.2177,249.6073,60.0322,214.0808,-0.011417,-0.01123455,0.0,0 STARLINK-4187,1 52850U 22062W   22199.91667824 -.01123455  00000-0 -11417-1 0  9996,2 52850  53.2177 249.6073 0001118  60.0322 214.0808 15.67012744  5445,6745.593000000003,91.895,368.212,366.704,0.0
52850.0,STARLINK-4187,PAYLOAD,2022-07-19 14:00:01,15.65404061,0.0001094,53.2174,246.3519,68.9956,6.1511,-0.012118,-0.01117659,0.0,0 STARLINK-4187,1 52850U 22062W   22200.58334491 -.01117659  00000-0 -12118-1 0  9991,2 52850  53.2174 246.3519 0001094  68.9956   6.1511 15.65404061  5541,6750.214,91.989,372.817,371.34,0.0
52850.0,STARLINK-4187,PAYLOAD,2022-07-19 22:00:00,15.64601969,0.0001274999999999,53.2174,244.7243,60.4432,93.7744,-0.012529,-0.0111888,0.0,0 STARLINK-4187,1 52850U 22062W   22200.91667824 -.01118880  00000-0 -12529-1 0  9990,2 52850  53.2174 244.7243 0001275  60.4432  93.7744 15.64601969  1309,6752.521,92.036,375.247,373.525,0.0
52850.0,STARLINK-4187,PAYLOAD,2022-07-20 04:00:00,15.64000363,0.0001259,53.2176,243.5062,64.566,58.3205,-0.012841,-0.01119463,0.0,0 STARLINK-4187,1 52850U 22062W   22201.16667824 -.01119463  00000-0 -12841-1 0  9993,2 52850  53.2176 243.5062 0001259  64.5660  58.3205 15.64000363  5637,6754.252,92.072,376.968,375.267,0.0
52850.0,STARLINK-4187,PAYLOAD,2022-07-20 14:00:01,15.62995975,0.0001044999999999,53.2174,241.4807,99.0975,210.3638,-0.013336,-0.01117357,0.0,0 STARLINK-4187,1 52850U 22062W   22201.58334491 -.01117357  00000-0 -13336-1 0  9990,2 52850  53.2174 241.4807 0001045  99.0975 210.3638 15.62995975  1304,6757.145,92.131,379.717,378.304,0.0
52850.0,STARLINK-4187,PAYLOAD,2022-07-20 22:00:01,15.62193498,0.0001064,53.2175,239.8587,60.7364,324.9669,-0.013787,-0.01119064,0.0,0 STARLINK-4187,1 52850U 22062W   22201.91668981 -.01119064  00000-0 -13787-1 0  9998,2 52850  53.2175 239.8587 0001064  60.7364 324.9669 15.62193498  1305,6759.459,92.178,382.044,380.605,0.0
52850.0,STARLINK-4187,PAYLOAD,2022-07-21 14:00:01,15.60586212,0.0001204,53.2174,236.6268,85.0989,90.0597,-0.014619,-0.01115016,0.0,0 STARLINK-4187,1 52850U 22062W   22202.58335648 -.01115016  00000-0 -14619-1 0  9991,2 52850  53.2174 236.6268 0001204  85.0989  90.0597 15.60586212  1303,6764.1,92.273,386.779,385.15,0.0
52850.0,STARLINK-4187,PAYLOAD,2022-07-21 22:00:00,15.59784229,0.0001164,53.2176,235.0107,79.1447,169.2308,-0.015103,-0.01116647,0.0,0 STARLINK-4187,1 52850U 22062W   22202.91667824 -.01116647  00000-0 -15103-1 0  9992,2 52850  53.2176 235.0107 0001164  79.1447 169.2308 15.59784229  1303,6766.418000000002,92.32,389.071,387.495,0.0
52850.0,STARLINK-4187,PAYLOAD,2022-07-22 06:00:00,15.58983488,0.000121,53.2177,233.3997,55.7917,264.8983,-0.015623,-0.01119854,0.0,0 STARLINK-4187,1 52850U 22062W   22203.25001157 -.01119854  00000-0 -15623-1 0  9991,2 52850  53.2177 233.3997 0001210  55.7917 264.8983 15.58983488  5960,6768.735,92.368,391.419,389.781,0.0
52850.0,STARLINK-4187,PAYLOAD,2022-07-22 22:00:00,15.57375313,0.0001097999999999,53.2174,230.1803,83.7703,18.6593,-0.016544,-0.01115979,0.0,0 STARLINK-4187,1 52850U 22062W   22203.91667824 -.01115979  00000-0 -16544-1 0  9990,2 52850  53.2174 230.1803 0001098  83.7703  18.6593 15.57375313  6061,6773.394,92.463,396.002,394.515,0.0
52850.0,STARLINK-4187,PAYLOAD,2022-07-23 14:00:01,15.55771225,0.0001186,53.2172,226.9717,86.4671,153.9036,-0.017592,-0.01117293,0.0,0 STARLINK-4187,1 52850U 22062W   22204.58335648 -.01117293  00000-0 -17592-1 0  9995,2 52850  53.2172 226.9717 0001186  86.4671 153.9036 15.55771225  1305,6778.049,92.559,400.718,399.11,0.0
52850.0,STARLINK-4187,PAYLOAD,2022-07-23 16:00:00,15.55571311,0.0001012,53.2174,226.5704,86.445,260.8246,-0.017755,-0.01119042,0.0,0 STARLINK-4187,1 52850U 22062W   22204.66667824 -.01119042  00000-0 -17755-1 0  9993,2 52850  53.2174 226.5704 0001012  86.4450 260.8246 15.55571311  6188,6778.629,92.57,401.18,399.8080000000001,0.0
52850.0,STARLINK-4187,PAYLOAD,2022-07-23 22:00:00,15.54965716,0.0001069,53.2175,225.3673,81.1564,226.6439,-0.018061,-0.01113608,0.0,0 STARLINK-4187,1 52850U 22062W   22204.91667824 -.01113608  00000-0 -18061-1 0  9994,2 52850  53.2175 225.3673 0001069  81.1564 226.6439 15.54965716  1309,6780.389,92.607,402.979,401.529,0.0
52850.0,STARLINK-4187,PAYLOAD,2022-07-24 14:00:01,15.533622400000002,0.0001132,53.2172,222.1701,69.6267,10.2611,-0.019202,-0.01115891,0.0,0 STARLINK-4187,1 52850U 22062W   22205.58334491 -.01115891  00000-0 -19202-1 0  9993,2 52850  53.2172 222.1701 0001132  69.6267  10.2611 15.53362240  1306,6785.055,92.702,407.68800000000016,406.152,0.0
52850.0,STARLINK-4187,PAYLOAD,2022-07-24 22:00:00,15.52558709,0.0001264,53.2175,220.5717,68.1424,76.3445,-0.019773,-0.01115927,0.0,0 STARLINK-4187,1 52850U 22062W   22205.91667824 -.01115927  00000-0 -19773-1 0  9992,2 52850  53.2175 220.5717 0001264  68.1424  76.3445 15.52558709  1307,6787.395,92.75,410.11800000000005,408.403,0.0
52850.0,STARLINK-4187,PAYLOAD,2022-07-25 06:00:00,15.517537300000004,0.0001313,53.2176,218.9785,71.1464,136.97299999999998,-0.020275,-0.01111799,0.0,0 STARLINK-4187,1 52850U 22062W   22206.25001157 -.01111799  00000-0 -20275-1 0  9993,2 52850  53.2176 218.9785 0001313  71.1464 136.9730 15.51753730  6436,6789.743,92.798,412.499,410.716,0.0
52850.0,STARLINK-4187,PAYLOAD,2022-07-25 14:00:01,15.50881219,0.0001137,53.2171,217.3849,89.4733,181.328,-0.0175479999999999,-0.00946955,0.0,0 STARLINK-4187,1 52850U 22062W   22206.58334491 -.00946955  00000-0 -17548-1 0  9997,2 52850  53.2171 217.3849 0001137  89.4733 181.3280 15.50881219  1308,6792.2890000000025,92.85,414.926,413.382,0.0
52850.0,STARLINK-4187,PAYLOAD,2022-07-25 22:00:00,15.5009312,0.0001137,53.2173,215.7901,87.8422,244.6651,-0.0054934,-0.00302706,0.0,0 STARLINK-4187,1 52850U 22062W   22206.91667824 -.00302706  00000-0 -54934-2 0  9994,2 52850  53.2173 215.7901 0001137  87.8422 244.6651 15.50093120  6539,6794.590999999999,92.898,417.228,415.6830000000001,0.0
